FENGYUN 3E              
1 49008U 21062A   21362.61561631 -.00000011  00000+0  15384-4 0  9992
2 49008  98.7072   2.2958 0002728 116.3595 243.7861 14.19816976 25078
