[
    {
        "OBJECT_NAME": "FENGYUN 3E",
        "OBJECT_ID": "2021-062A",
        "EPOCH": "2021-12-28T14:46:29.249184",
        "MEAN_MOTION": 14.19816976,
        "ECCENTRICITY": 0.0002728,
        "INCLINATION": 98.7072,
        "RA_OF_ASC_NODE": 2.2958,
        "ARG_OF_PERICENTER": 116.3595,
        "MEAN_ANOMALY": 243.7861,
        "EPHEMERIS_TYPE": 0,
        "CLASSIFICATION_TYPE": "U",
        "NORAD_CAT_ID": 49008,
        "ELEMENT_SET_NO": 999,
        "REV_AT_EPOCH": 2507,
        "BSTAR": 1.5384e-05,
        "MEAN_MOTION_DOT": -1.1e-07,
        "MEAN_MOTION_DDOT": 0
    }
]